{
  "type": "FeatureCollection",
  "features": [
    {
      "type": "Feature",
      "properties": {
        "norad_id": 41589,
        "name": "EUTELSAT 117 WEST B (WAAS/PRN 131)",
        "group": "gnss",
        "lat": -0.004081441505489351,
        "lon": 134.95684795819454,
        "alt_km": 35785.18524187167,
        "timestamp": "2025-12-09T11:33:55.041824+00:00",
        "meta_object_name": "EUTELSAT 117 WEST B (WAAS/PRN 131)",
        "meta_object_id": "2016-038B",
        "meta_epoch": "2025-12-09T01:01:58.310400",
        "meta_mean_motion": 1.00271867,
        "meta_eccentricity": 3.72e-05,
        "meta_inclination": 0.0079,
        "meta_ra_of_asc_node": 144.6605,
        "meta_arg_of_pericenter": 293.2905,
        "meta_mean_anomaly": 258.5865,
        "meta_ephemeris_type": 0,
        "meta_classification_type": "U",
        "meta_norad_cat_id": 41589,
        "meta_element_set_no": 999,
        "meta_rev_at_epoch": 3475,
        "meta_bstar": 0,
        "meta_mean_motion_dot": -1e-07,
        "meta_mean_motion_ddot": 0,
        "tle_line1": "1 41589U 16038B   25343.04303600 -.00000010  00000+0  00000+0 0  9998",
        "tle_line2": "2 41589   0.0079 144.6605 0000372 293.2905 258.5865  1.00271867 34753"
      },
      "geometry": {
        "type": "Point",
        "coordinates": [
          134.95684795819454,
          -0.004081441505489351
        ]
      }
    },
    {
      "type": "Feature",
      "properties": {
        "norad_id": 41859,
        "name": "GSAT0207 (GALILEO 15)",
        "group": "gnss",
        "lat": 42.66589709755151,
        "lon": -113.16893251560988,
        "alt_km": 23223.082060467772,
        "timestamp": "2025-12-09T11:33:55.041836+00:00",
        "meta_object_name": "GSAT0207 (GALILEO 15)",
        "meta_object_id": "2016-069A",
        "meta_epoch": "2025-12-06T22:22:57.829728",
        "meta_mean_motion": 1.70474256,
        "meta_eccentricity": 0.00021753,
        "meta_inclination": 55.3787,
        "meta_ra_of_asc_node": 106.4111,
        "meta_arg_of_pericenter": 324.2379,
        "meta_mean_anomaly": 35.7022,
        "meta_ephemeris_type": 0,
        "meta_classification_type": "U",
        "meta_norad_cat_id": 41859,
        "meta_element_set_no": 999,
        "meta_rev_at_epoch": 5612,
        "meta_bstar": 0,
        "meta_mean_motion_dot": 7e-08,
        "meta_mean_motion_ddot": 0,
        "tle_line1": "1 41859U 16069A   25340.93261377  .00000007  00000+0  00000+0 0  9996",
        "tle_line2": "2 41859  55.3787 106.4111 0002175 324.2379  35.7022  1.70474256 56122"
      },
      "geometry": {
        "type": "Point",
        "coordinates": [
          -113.16893251560988,
          42.66589709755151
        ]
      }
    },
    {
      "type": "Feature",
      "properties": {
        "norad_id": 41860,
        "name": "GSAT0212 (GALILEO 16)",
        "group": "gnss",
        "lat": -27.710587270077475,
        "lon": -52.41970700231907,
        "alt_km": 23232.165125999963,
        "timestamp": "2025-12-09T11:33:55.041849+00:00",
        "meta_object_name": "GSAT0212 (GALILEO 16)",
        "meta_object_id": "2016-069B",
        "meta_epoch": "2025-12-09T03:10:58.927008",
        "meta_mean_motion": 1.70474546,
        "meta_eccentricity": 0.0002188,
        "meta_inclination": 55.3778,
        "meta_ra_of_asc_node": 106.3455,
        "meta_arg_of_pericenter": 30.0277,
        "meta_mean_anomaly": 329.9496,
        "meta_ephemeris_type": 0,
        "meta_classification_type": "U",
        "meta_norad_cat_id": 41860,
        "meta_element_set_no": 999,
        "meta_rev_at_epoch": 5641,
        "meta_bstar": 0,
        "meta_mean_motion_dot": 1e-07,
        "meta_mean_motion_ddot": 0,
        "tle_line1": "1 41860U 16069B   25343.13262647  .00000010  00000+0  00000+0 0  9998",
        "tle_line2": "2 41860  55.3778 106.3455 0002188  30.0277 329.9496  1.70474546 56414"
      },
      "geometry": {
        "type": "Point",
        "coordinates": [
          -52.41970700231907,
          -27.710587270077475
        ]
      }
    },
    {
      "type": "Feature",
      "properties": {
        "norad_id": 41861,
        "name": "GSAT0213 (GALILEO 17)",
        "group": "gnss",
        "lat": -9.229955888918072,
        "lon": 99.89421730398735,
        "alt_km": 23220.798755202835,
        "timestamp": "2025-12-09T11:33:55.041860+00:00",
        "meta_object_name": "GSAT0213 (GALILEO 17)",
        "meta_object_id": "2016-069C",
        "meta_epoch": "2025-12-07T03:41:32.905248",
        "meta_mean_motion": 1.70474767,
        "meta_eccentricity": 0.00022126,
        "meta_inclination": 55.379,
        "meta_ra_of_asc_node": 106.408,
        "meta_arg_of_pericenter": 283.542,
        "meta_mean_anomaly": 76.3889,
        "meta_ephemeris_type": 0,
        "meta_classification_type": "U",
        "meta_norad_cat_id": 41861,
        "meta_element_set_no": 999,
        "meta_rev_at_epoch": 5624,
        "meta_bstar": 0,
        "meta_mean_motion_dot": 7e-08,
        "meta_mean_motion_ddot": 0,
        "tle_line1": "1 41861U 16069C   25341.15385307  .00000007  00000+0  00000+0 0  9994",
        "tle_line2": "2 41861  55.3790 106.4080 0002212 283.5420  76.3889  1.70474767 56242"
      },
      "geometry": {
        "type": "Point",
        "coordinates": [
          99.89421730398735,
          -9.229955888918072
        ]
      }
    },
    {
      "type": "Feature",
      "properties": {
        "norad_id": 41862,
        "name": "GSAT0214 (GALILEO 18)",
        "group": "gnss",
        "lat": -53.93534682756708,
        "lon": -2.290509740865689,
        "alt_km": 23224.77558391462,
        "timestamp": "2025-12-09T11:33:55.041871+00:00",
        "meta_object_name": "GSAT0214 (GALILEO 18)",
        "meta_object_id": "2016-069D",
        "meta_epoch": "2025-12-07T21:16:28.160256",
        "meta_mean_motion": 1.70474622,
        "meta_eccentricity": 0.00012492,
        "meta_inclination": 55.3777,
        "meta_ra_of_asc_node": 106.3805,
        "meta_arg_of_pericenter": 290.0949,
        "meta_mean_anomaly": 69.8506,
        "meta_ephemeris_type": 0,
        "meta_classification_type": "U",
        "meta_norad_cat_id": 41862,
        "meta_element_set_no": 999,
        "meta_rev_at_epoch": 5638,
        "meta_bstar": 0,
        "meta_mean_motion_dot": 8e-08,
        "meta_mean_motion_ddot": 0,
        "tle_line1": "1 41862U 16069D   25341.88643704  .00000008  00000+0  00000+0 0  9994",
        "tle_line2": "2 41862  55.3777 106.3805 0001249 290.0949  69.8506  1.70474622 56388"
      },
      "geometry": {
        "type": "Point",
        "coordinates": [
          -2.290509740865689,
          -53.93534682756708
        ]
      }
    },
    {
      "type": "Feature",
      "properties": {
        "norad_id": 42709,
        "name": "SES-15 (WAAS/PRN 133)",
        "group": "gnss",
        "lat": 0.02572059508379594,
        "lon": 122.77243664683334,
        "alt_km": 35793.046491278255,
        "timestamp": "2025-12-09T11:33:55.041883+00:00",
        "meta_object_name": "SES-15 (WAAS/PRN 133)",
        "meta_object_id": "2017-026A",
        "meta_epoch": "2025-12-09T03:15:34.549920",
        "meta_mean_motion": 1.00258632,
        "meta_eccentricity": 7.85e-05,
        "meta_inclination": 0.02,
        "meta_ra_of_asc_node": 342.0991,
        "meta_arg_of_pericenter": 323.6241,
        "meta_mean_anomaly": 52.1421,
        "meta_ephemeris_type": 0,
        "meta_classification_type": "U",
        "meta_norad_cat_id": 42709,
        "meta_element_set_no": 999,
        "meta_rev_at_epoch": 552,
        "meta_bstar": 0,
        "meta_mean_motion_dot": 6.3e-07,
        "meta_mean_motion_ddot": 0,
        "tle_line1": "1 42709U 17026A   25343.13581655  .00000063  00000+0  00000+0 0  9996",
        "tle_line2": "2 42709   0.0200 342.0991 0000785 323.6241  52.1421  1.00258632  5529"
      },
      "geometry": {
        "type": "Point",
        "coordinates": [
          122.77243664683334,
          0.02572059508379594
        ]
      }
    },
    {
      "type": "Feature",
      "properties": {
        "norad_id": 42738,
        "name": "QZS-2 (QZSS/PRN 194)",
        "group": "gnss",
        "lat": 23.91312649910681,
        "lon": 33.72891522775928,
        "alt_km": 37622.12958962739,
        "timestamp": "2025-12-09T11:33:55.041895+00:00",
        "meta_object_name": "QZS-2 (QZSS/PRN 194)",
        "meta_object_id": "2017-028A",
        "meta_epoch": "2025-12-08T14:21:38.469888",
        "meta_mean_motion": 1.00284144,
        "meta_eccentricity": 0.0758218,
        "meta_inclination": 39.7211,
        "meta_ra_of_asc_node": 245.9442,
        "meta_arg_of_pericenter": 269.4343,
        "meta_mean_anomaly": 279.2962,
        "meta_ephemeris_type": 0,
        "meta_classification_type": "U",
        "meta_norad_cat_id": 42738,
        "meta_element_set_no": 999,
        "meta_rev_at_epoch": 571,
        "meta_bstar": 0,
        "meta_mean_motion_dot": -1.86e-06,
        "meta_mean_motion_ddot": 0,
        "tle_line1": "1 42738U 17028A   25342.59836192 -.00000186  00000+0  00000+0 0  9995",
        "tle_line2": "2 42738  39.7211 245.9442 0758218 269.4343 279.2962  1.00284144  5715"
      },
      "geometry": {
        "type": "Point",
        "coordinates": [
          33.72891522775928,
          23.91312649910681
        ]
      }
    }
  ]
}